<?xml version="1.0" encoding="UTF-8"?>
<kml xmlns="http://www.opengis.net/kml/2.2">
  <Folder>
    <name>Via Egnatia</name>
    <description>Data downloaded from http://vici.org/vici/18594</description>
    <Placemark>
      <name>Via Egnatia</name>
      <description>Egnatian Way</description>
      <Point>
        <coordinates>19.493677,41.305283,0 </coordinates>
      </Point>
    </Placemark>
    <Placemark>
      <name>Via Egnatia, line part 1</name>
      <description>CCO / No Rights Reserved by Ludwinski</description>
      <LineString><tessellate>1</tessellate><coordinates>28.9030902,41.0124629,0 28.8955876,41.0049422,0 28.8580292,40.9926239,0 28.7843245,40.9819577,0 28.7322621,40.9796462,0 28.7203044,40.987886,0 28.6980969,41.0025825,0 28.684844,41.0040616,0 28.6572048,41.0043703,0 28.6158487,41.026156,0 28.5887355,41.024445,0 28.5642077,41.0201144,0 28.5521734,41.0153741,0 28.5116319,41.0076314,0 28.4031725,41.0493845,0 28.3102383,41.0629495,0 28.3100187,41.0631522,0 28.2437212,41.0751275,0 28.2370999,41.0783522,0 28.2268315,41.0798468,0 28.1762523,41.0772801,0 28.1245061,41.0734763,0 28.0881288,41.0612229,0 28.0755629,41.0597636,0 28.0357496,41.0453599,0 28.019442,41.0418162,0 28.0024825,41.030911,0 27.9893842,41.019507,0 27.9813864,41.0104283,0 27.9810167,40.9946411,0 27.9744597,40.9879731,0 27.9607548,40.9818355,0 27.9535303,40.9779774,0 27.9547615,40.9702836,0 27.9374001,40.9717974,0 27.8928567,40.9694853,0 27.8775948,40.9737987,0 27.8414524,40.9945691,0 27.831184,40.9978661,0 27.7761798,41.0132045,0 27.7639221,41.0155638,0 27.7400282,41.0140432,0 27.7204608,41.0109446,0 27.7113988,41.0065448,0 27.6987602,41.0035036,0 27.6903955,41.0042501,0 27.6828345,41.0051577,0 27.6242692,40.9931143,0 27.6114207,40.9910739,0 27.593029,40.9873384,0 27.5620062,40.9909619,0 27.54573,40.9840768,0 27.5300956,40.9820423,0 27.494819,40.9748655,0 27.4831203,40.9733644,0 27.4769573,40.9720275,0 27.4746942,40.9701497,0 27.4710331,40.9680906,0 27.4696197,40.9681983,0 27.4573559,40.9649019,0 27.4543421,40.966152,0 27.4525624,40.9663694,0 27.4395806,40.9672688,0 27.4381288,40.9667141,0 27.4353031,40.9646174,0 27.4306836,40.9646041,0 27.4232633,40.9623219,0 27.4207888,40.9598505,0 27.4049658,40.9608974,0 27.3791451,40.9666761,0 27.3231604,40.9494013,0 27.3156521,40.945771,0 27.3000568,40.9355367,0 27.2996752,40.9355229,0 27.2917604,40.9338519,0 27.2857414,40.9353086,0 27.276283,40.9345644,0 27.2682863,40.9337206,0 27.2624973,40.9325339,0 27.2596774,40.9337282,0 27.2529059,40.9326315,0 27.2478516,40.9321091,0 27.2426945,40.9330299,0 27.2257283,40.9312344,0 27.2196379,40.9305821,0 27.2144402,40.9307516,0 27.2106696,40.9302527,0 27.2076302,40.930285,0 27.206388,40.929154,0 27.206315,40.9292119,0 27.1934588,40.9290558,0 27.1878247,40.9294836,0 27.1821027,40.9284918,0 27.1780815,40.9278144,0 27.1659347,40.920535,0 27.1608005,40.9153463,0 27.134374,40.9138223,0 27.1162236,40.912589,0 27.0985616,40.9076079,0 27.0904091,40.9068409,0 27.0761071,40.8999978,0 27.0715432,40.8974799,0 27.0554873,40.8952179,0 27.046473,40.8887806,0 27.0424032,40.8846648,0 27.0394412,40.8796791,0 27.034197,40.8746617,0 27.0248482,40.870013,0 27.0054209,40.8775942,0 26.9635765,40.8778014,0 26.9084618,40.8846924,0 26.8365694,40.865482,0 26.7493661,40.8649516,0 26.5889147,40.871581,0 26.4846765,40.8750165,0 26.4097824,40.8829398,0 26.3169176,40.9447054,0 26.2581867,40.9426684,0 26.170469,40.8951895,0 26.0981648,40.8456077,0 26.0933169,40.8445039,0 26.0847508,40.8472471,0 26.0793986,40.8486741,0 26.0693826,40.8534689,0 26.0604436,40.8558636,0 26.0564525,40.8565081,0 26.0543254,40.8573072,0 26.0516186,40.8580246,0 26.0455316,40.858587,0 26.0426219,40.859286,0 26.0404488,40.8592925,0 26.0394841,40.8595903,0 26.0355071,40.8632667,0 26.0296996,40.8654967,0 26.0278601,40.8651262,0 26.0211309,40.8647571,0 25.9914392,40.8637698,0 25.9701811,40.8586825,0 25.9360756,40.8510025,0 25.8985774,40.8498329,0 25.8871421,40.8480199,0 25.874855,40.8449623,0 25.86525,40.8441801,0 25.8568829,40.8473144,0 25.8426845,40.8498991,0 25.8348592,40.8506942,0 25.81291,40.8550808,0 25.7872262,40.8515878,0 25.7828192,40.8514619,0 25.7815866,40.8513666,0 25.760872,40.8553043,0 25.7573631,40.85581,0 25.754314,40.8553061,0 25.7448142,40.8558228,0 25.7441352,40.8557056,0 25.7438228,40.8554583,0 25.7433382,40.8553556,0 25.7412076,40.8570136,0 25.7397487,40.8585173,0 25.7368723,40.8597287,0 25.7363783,40.8597219,0 25.736038,40.8600388,0 25.7361221,40.8614646,0 25.7347499,40.8624431,0 25.7342777,40.8627319,0 25.7334079,40.8624365,0 25.7307747,40.8631883,0 25.729795,40.8634328,0 25.7275824,40.863649,0 25.727255,40.8632321,0 25.7266381,40.8634003,0 25.7265142,40.8636874,0 25.7262747,40.8639079,0 25.7258753,40.8644462,0 25.7258088,40.8647368,0 25.7258956,40.8649845,0 25.7257859,40.866095,0 25.7256612,40.8665225,0 25.7253948,40.8667225,0 25.7151961,40.8726236,0 25.7121633,40.8742724,0 25.7118923,40.8743467,0 25.7109504,40.8740032,0 25.7101485,40.8745493,0 25.7092582,40.8746644,0 25.7089785,40.8748599,0 25.7101048,40.8750942,0 25.7102249,40.8751669,0 25.7094989,40.8756772,0 25.7083032,40.8761328,0 25.7079963,40.8762075,0 25.7070622,40.876055,0 25.7065462,40.8768572,0 25.7054757,40.8765067,0 25.7046887,40.876883,0 25.7042991,40.8776723,0 25.7043185,40.878735,0 25.7037588,40.8785744,0 25.7034692,40.8790547,0 25.7033448,40.8793322,0 25.7036601,40.8800499,0 25.7032286,40.8805282,0 25.7027072,40.8809091,0 25.7020175,40.8809161,0 25.7017807,40.8810847,0 25.7013623,40.8816824,0 25.7006291,40.8823714,0 25.700302,40.8835453,0 25.6987239,40.8848585,0 25.6982243,40.8882984,0 25.6960839,40.8901384,0 25.6954331,40.8901453,0 25.6945216,40.8908142,0 25.6943425,40.8917302,0 25.6929579,40.8926646,0 25.6916764,40.8977375,0 25.6904622,40.8987932,0 25.6912242,40.9002811,0 25.690994,40.9009129,0 25.6900936,40.9013079,0 25.6892466,40.9017843,0 25.6888528,40.9023833,0 25.6894172,40.9030964,0 25.68958,40.9037525,0 25.6879266,40.9044591,0 25.6869684,40.9045121,0 25.6860775,40.9060465,0 25.684498,40.9072704,0 25.6841935,40.9083911,0 25.6849871,40.9086415,0 25.6865597,40.9099418,0 25.6868722,40.9109148,0 25.6869728,40.9120847,0 25.6871339,40.9123807,0 25.6886791,40.9138381,0 25.689813,40.9148937,0 25.6893472,40.9187238,0 25.6880494,40.9201421,0 25.6867367,40.9204611,0 25.6856965,40.9202489,0 25.6844632,40.9204734,0 25.6830982,40.919965,0 25.6826311,40.9195933,0 25.6821806,40.9197033,0 25.6822187,40.920397,0 25.6821366,40.9213424,0 25.6821454,40.9213117,0 25.6816474,40.9220663,0 25.6796504,40.9220409,0 25.6771838,40.9216132,0 25.6765189,40.9223859,0 25.6751958,40.9238571,0 25.669405,40.9270363,0 25.6675853,40.9289086,0 25.6656462,40.931025,0 25.6644252,40.933208,0 25.6652766,40.9338985,0 25.6653088,40.9343725,0 25.6657259,40.9349804,0 25.6654472,40.9351221,0 25.6640436,40.9372736,0 25.6633954,40.9381737,0 25.6627486,40.9398843,0 25.661821,40.9405888,0 25.6617518,40.9409957,0 25.6610432,40.9414392,0 25.6610717,40.9420439,0 25.6604116,40.9431754,0 25.6603896,40.943176,0 25.6582433,40.9442072,0 25.6575937,40.9446311,0 25.6573705,40.9460021,0 25.6569905,40.9463006,0 25.6562716,40.9470092,0 25.6551506,40.9480826,0 25.6545857,40.9491652,0 25.6544578,40.9499129,0 25.6531063,40.9513923,0 25.6528759,40.9528123,0 25.6532273,40.9529693,0 25.6531915,40.953236,0 25.6529195,40.9538433,0 25.6527984,40.9544049,0 25.6512587,40.9561711,0 25.6510714,40.9583947,0 25.6508297,40.9602788,0 25.6514518,40.9621716,0 25.6510774,40.9628564,0 25.6512029,40.9637396,0 25.6508636,40.9645636,0 25.651368,40.9650751,0 25.6508087,40.968106,0 25.6508057,40.9691146,0 25.6513169,40.9711139,0 25.6513282,40.9710706,0 25.6504684,40.9768756,0 25.6540791,40.9843525,0 25.6557283,40.9867917,0 25.6638286,40.9944148,0 25.6681784,40.9975245,0 25.6693107,40.9983179,0 25.6696408,40.9999863,0 25.670836,41.0012832,0 25.6708146,41.0056484,0 25.6829529,41.0151954,0 25.6950304,41.02421,0 25.6854312,41.0286953,0 25.6819437,41.0295965,0 25.6764692,41.0311905,0 25.6764751,41.0311745,0 25.6723966,41.0325347,0 25.6662856,41.0327219,0 25.6630485,41.0359363,0 25.6582641,41.0388646,0 25.6521972,41.0402404,0 25.6490348,41.0403368,0 25.6398574,41.0425824,0 25.6352312,41.0448777,0 25.6343447,41.045935,0 25.6293235,41.0480812,0 25.6260883,41.0516201,0 25.6205381,41.0543193,0 25.606687,41.0600527,0 25.5960194,41.0627345,0 25.5892028,41.0681344,0 25.5886617,41.0689388,0 25.5871672,41.0688632,0 25.5860624,41.0681482,0 25.5851909,41.0685277,0 25.5829803,41.0688405,0 25.5738895,41.0687542,0 25.5683257,41.0724403,0 25.5523501,41.080855,0 25.5477556,41.0824918,0 25.5390772,41.0843808,0 25.526329,41.0848791,0 25.5187668,41.0869524,0 25.5109007,41.0867572,0 25.5001678,41.0882412,0 25.4920822,41.088588,0 25.489685,41.0891709,0 25.4829297,41.0906292,0 25.4643132,41.095484,0 25.4530985,41.0969937,0 25.4357322,41.0997993,0 25.4238643,41.1056894,0 25.4156837,41.1082282,0 25.411355,41.1122879,0 25.4013079,41.112789,0 25.3893359,41.1172164,0 25.385336,41.1198152,0 25.3835935,41.1216872,0 25.3812032,41.1224177,0 25.3533989,41.1311207,0 25.3439171,41.1312643,0 25.3285986,41.1312169,0 25.3242416,41.1313981,0 25.3210924,41.1310717,0 25.3187386,41.1310795,0 25.3180372,41.1336354,0 25.3177403,41.1360718,0 25.3164251,41.1371902,0 25.3145978,41.1378458,0 25.3113082,41.1399958,0 25.3086218,41.1411368,0 25.3065961,41.1415791,0 25.306107,41.1416454,0 25.3057795,41.1415813,0 25.3050613,41.1416152,0 25.3041684,41.1416183,0 25.2988625,41.1405732,0 25.295204,41.1386427,0 25.292994,41.1385254,0 25.2798291,41.1363881,0 25.2761606,41.1350728,0 25.2740959,41.1347004,0 25.2701582,41.1331084,0 25.2566285,41.1326682,0 25.2539897,41.1321758,0 25.2533302,41.1316314,0 25.2508095,41.1312909,0 25.2499854,41.130862,0 25.2482243,41.1301492,0 25.2466422,41.1299178,0 25.2463236,41.1297695,0 25.2456982,41.1292449,0 25.2445138,41.1295067,0 25.2418266,41.1287326,0 25.2381153,41.1279471,0 25.2354488,41.1278847,0 25.2307078,41.127098,0 25.2270049,41.1279724,0 25.2258258,41.1279929,0 25.225252,41.1285244,0 25.2246161,41.128947,0 25.2231355,41.1287332,0 25.2224808,41.1300412,0 25.2207876,41.1316561,0 25.2193219,41.1324723,0 25.2182463,41.134394,0 25.2182786,41.1360854,0 25.2182867,41.136026,0 25.2173347,41.1375018,0 25.2166771,41.1377134,0 25.2152468,41.1386711,0 25.2135597,41.1391685,0 25.2134517,41.1391382,0 25.2131226,41.1391402,0 25.2111566,41.1395756,0 25.2106693,41.1397261,0 25.2106435,41.1397207,0 25.2103835,41.1397658,0 25.2106018,41.1402162,0 25.21067,41.140412,0 25.2110118,41.1406848,0 25.2111772,41.1409361,0 25.2112063,41.1410113,0 25.2101838,41.1412916,0 25.2096793,41.1412104,0 25.2095578,41.1411592,0 25.209403,41.1408784,0 25.2089188,41.1406539,0 25.2085969,41.14063,0 25.2087419,41.1408226,0 25.2088805,41.1412039,0 25.2087921,41.1415003,0 25.2083032,41.1411948,0 25.208292,41.1411705,0 25.2080579,41.1409036,0 25.2076597,41.1406949,0 25.2073957,41.1404005,0 25.2074035,41.1403793,0 25.207758,41.1400503,0 25.2076531,41.139388,0 25.2077446,41.1390403,0 25.207862,41.1389156,0 25.2079168,41.1387974,0 25.2079608,41.1384884,0 25.2079688,41.1384733,0 25.2090734,41.1377905,0 25.209625,41.1374992,0 25.2094959,41.137423,0 25.2087251,41.1372148,0 25.2086127,41.1369511,0 25.2086842,41.1367083,0 25.208992,41.1369844,0 25.2095995,41.1369768,0 25.2099891,41.1368529,0 25.2104399,41.136557,0 25.2115162,41.1366269,0 25.2130411,41.1364227,0 25.2130442,41.1364007,0 25.2134846,41.1361249,0 25.213288,41.1359615,0 25.2132921,41.1359388,0 25.2128156,41.1361358,0 25.2121418,41.1362029,0 25.2117955,41.1360066,0 25.2112336,41.1358157,0 25.2097369,41.1356838,0 25.2093508,41.1352206,0 25.2078884,41.1349675,0 25.2015864,41.134256,0 25.1997737,41.1342408,0 25.1982695,41.1337916,0 25.1958546,41.1331752,0 25.1955798,41.1331466,0 25.195033,41.1326074,0 25.1935439,41.1323768,0 25.1923678,41.1316605,0 25.1917386,41.1308618,0 25.1884962,41.1300683,0 25.1869577,41.1294328,0 25.1857807,41.1288538,0 25.1847425,41.1283343,0 25.1805082,41.1262999,0 25.1754493,41.1241908,0 25.1725602,41.1214126,0 25.1707353,41.1220035,0 25.1703242,41.122221,0 25.1695096,41.1219959,0 25.1694818,41.1208559,0 25.1685278,41.1196932,0 25.164771,41.1189668,0 25.1488689,41.1169936,0 25.140971,41.1187146,0 25.1322899,41.118438,0 25.1280319,41.119516,0 25.1255535,41.1194947,0 25.1222756,41.1195651,0 25.1183895,41.1217969,0 25.1146431,41.1213869,0 25.1122759,41.1207214,0 25.1104535,41.120022,0 25.1081689,41.1197306,0 25.1055234,41.1199779,0 25.1035852,41.1209668,0 25.0932735,41.1230346,0 25.0911054,41.1232661,0 25.0894309,41.1237396,0 25.0855962,41.1246599,0 25.0810689,41.1268779,0 25.0774211,41.1267531,0 25.0697617,41.126568,0 25.0697491,41.1264225,0 25.0634121,41.1270555,0 25.0553663,41.128936,0 25.046085,41.1291025,0 25.0331716,41.1293889,0 25.0264437,41.1373562,0 25.0224216,41.1379385,0 25.0172639,41.1371041,0 25.0142621,41.1367705,0 25.0105433,41.137204,0 25.0087724,41.1368098,0 25.0072024,41.1361438,0 25.0063849,41.1352435,0 25.0047633,41.1331606,0 25.0047589,41.1332091,0 25.0047356,41.133067,0 25.0038594,41.132673,0 25.003189,41.1325731,0 25.001787,41.1328147,0 25.0008165,41.1323625,0 24.998802,41.1330107,0 24.9952329,41.1331564,0 24.9788577,41.1373985,0 24.9750343,41.1371141,0 24.9718367,41.135998,0 24.9651301,41.1360543,0 24.9588031,41.1362972,0 24.9525646,41.1369921,0 24.9505258,41.141548,0 24.9473616,41.1447736,0 24.9387326,41.1476811,0 24.9382851,41.1474807,0 24.9374263,41.1472066,0 24.9319565,41.1467717,0 24.9293372,41.1466244,0 24.9013298,41.1446662,0 24.8993136,41.1440429,0 24.8973267,41.1436618,0 24.8948457,41.1446494,0 24.886549,41.1443875,0 24.8873007,41.1395137,0 24.8876016,41.1363245,0 24.8860117,41.1274903,0 24.8687914,41.1107771,0 24.8658204,41.1051672,0 24.8656852,41.1050667,0 24.8555825,41.0951241,0 24.8458671,41.0894906,0 24.8424172,41.0850577,0 24.8347497,41.0811187,0 24.8259373,41.0802919,0 24.8177378,41.0776822,0 24.813007,41.0775872,0 24.810874,41.0781815,0 24.8108664,41.0780702,0 24.801941,41.0789193,0 24.8004961,41.0757639,0 24.8005083,41.0756914,0 24.7971487,41.0780588,0 24.7938088,41.0794248,0 24.7886511,41.0799979,0 24.7833192,41.0824552,0 24.7811107,41.0831499,0 24.7758696,41.0849008,0 24.7724555,41.0861289,0 24.7695742,41.0869183,0 24.7679479,41.0872066,0 24.7639396,41.08533,0 24.7620542,41.0844407,0 24.761572,41.0824951,0 24.7587562,41.0807689,0 24.7583043,41.0783536,0 24.7518236,41.0710022,0 24.7512019,41.0696813,0 24.7491065,41.0674097,0 24.7491313,41.0674098,0 24.7490137,41.0658825,0 24.7473779,41.0638981,0 24.7439701,41.0585568,0 24.734996,41.049001,0 24.7262335,41.0423629,0 24.7181708,41.0354022,0 24.7077215,41.0229426,0 24.7039532,41.0214593,0 24.697664,41.0148273,0 24.6552381,40.9849142,0 24.6434183,40.9798126,0 24.6310815,40.9780206,0 24.6257785,40.9767753,0 24.6050023,40.9753532,0 24.5974504,40.9733981,0 24.5861415,40.9693623,0 24.5701072,40.9676258,0 24.5623691,40.9668212,0 24.5599054,40.9669791,0 24.5551066,40.9675438,0 24.5530906,40.9675337,0 24.5489975,40.9685827,0 24.5395936,40.968182,0 24.5342343,40.9671419,0 24.5279917,40.963131,0 24.5266619,40.9618926,0 24.5250976,40.9613487,0 24.5230091,40.9617852,0 24.5034618,40.9649845,0 24.4911234,40.9663577,0 24.4895958,40.9666412,0 24.4868187,40.9648219,0 24.4837756,40.9645012,0 24.4672726,40.9572972,0 24.4618742,40.9569563,0 24.4564315,40.9548222,0 24.4543952,40.9526578,0 24.4521409,40.9517924,0 24.4527744,40.9504141,0 24.4510787,40.9498011,0 24.4499878,40.9506155,0 24.4480939,40.9500309,0 24.4490941,40.948112,0 24.4477525,40.9469921,0 24.4460153,40.9469009,0 24.4439697,40.948574,0 24.4339851,40.9457754,0 24.4315221,40.9459536,0 24.4155651,40.9392332,0 24.4148832,40.9347955,0 24.4111848,40.9363524,0 24.4001945,40.9383506,0 24.3931766,40.9408211,0 24.3892131,40.9415953,0 24.3866264,40.9406279,0 24.3847099,40.9411551,0 24.3841607,40.9401967,0 24.38333,40.9399506,0 24.3823279,40.9400937,0 24.3816951,40.9403401,0 24.3807499,40.9403958,0 24.3799768,40.9402805,0 24.3795407,40.9401817,0 24.3789805,40.9402432,0 24.3779443,40.9401843,0 24.3776272,40.9399939,0 24.3774966,40.9396697,0 24.375626,40.9407824,0 24.3739134,40.943608,0 24.3735426,40.9443545,0 24.3731579,40.9450214,0 24.3725611,40.9460785,0 24.3709892,40.9463202,0 24.3706499,40.9464341,0 24.3700551,40.9468086,0 24.3696741,40.9473158,0 24.3697087,40.9472563,0 24.3642985,40.9505499,0 24.3627222,40.9551334,0 24.3527375,40.9701604,0 24.3217935,41.0087679,0 24.3201826,41.0096729,0 24.3151967,41.0114437,0 24.3123183,41.0119272,0 24.3113413,41.0121883,0 24.3100546,41.0124232,0 24.3010229,41.0120586,0 24.29593,41.0117444,0 24.2920177,41.0110327,0 24.2862068,41.0114359,0 24.280017,41.0156601,0 24.2790298,41.0185057,0 24.2790443,41.0222229,0 24.2722467,41.0370893,0 24.2617526,41.0418985,0 24.2323695,41.0451668,0 24.1941708,41.0423387,0 24.1783025,41.0524585,0 24.1486621,41.0485759,0 24.1123409,41.0487049,0 24.0882929,41.0400435,0 24.0770203,41.0304753,0 24.0613424,41.017932,0 24.0543537,41.0150008,0 24.0494363,41.0133679,0 24.0403986,41.0112977,0 24.0332285,41.0065393,0 24.0331081,41.0063918,0 24.0281634,41.0030816,0 24.0258488,41.0016353,0 24.0234646,41.0000912,0 24.0204489,40.9973967,0 24.0196463,40.9944433,0 24.0200433,40.9896853,0 24.0200977,40.9832928,0 24.0216061,40.9807176,0 24.0218824,40.9791955,0 24.0217213,40.9774537,0 24.0199206,40.976218,0 24.018367,40.9759695,0 24.0175544,40.9756462,0 24.0160978,40.9749233,0 24.0144636,40.9753082,0 24.0127823,40.9740263,0 24.0071472,40.9690728,0 24.0065496,40.9616633,0 24.0058099,40.9572784,0 23.9989548,40.9491419,0 23.9944457,40.9464521,0 23.9929569,40.9448161,0 23.9882317,40.9464178,0 23.9841169,40.946465,0 23.9780534,40.9473571,0 23.9763408,40.9470638,0 23.9726551,40.9459067,0 23.9690685,40.9445204,0 23.9635916,40.9413914,0 23.9692929,40.9286033,0 23.9707756,40.9260874,0 23.9727745,40.9218486,0 23.9695756,40.9213684,0 23.9666293,40.9211293,0 23.964777,40.9215163,0 23.9611092,40.9206208,0 23.9592262,40.9208524,0 23.9577758,40.9196892,0 23.9388504,40.9160006,0 23.9300851,40.915323,0 23.9204221,40.915552,0 23.9071284,40.9168559,0 23.9023379,40.9189862,0 23.9006956,40.9194348,0 23.8958719,40.9223191,0 23.8927348,40.9247756,0 23.8898301,40.9244188,0 23.8860201,40.9236686,0 23.8761941,40.9230367,0 23.8743092,40.9234468,0 23.8720563,40.9224789,0 23.871987,40.9206631,0 23.8697702,40.9172097,0 23.8675508,40.9170868,0 23.8667722,40.9162339,0 23.8675291,40.9149982,0 23.8677909,40.9135524,0 23.8661781,40.911951,0 23.8649086,40.9087072,0 23.8614491,40.9022093,0 23.8694143,40.888147,0 23.8704205,40.883446,0 23.8698382,40.8673139,0 23.8672675,40.8662825,0 23.8591499,40.8610236,0 23.8495174,40.844851,0 23.8534429,40.8366058,0 23.8536295,40.8328083,0 23.8508713,40.82974,0 23.8460057,40.8292049,0 23.8454219,40.8291509,0 23.8432137,40.8288285,0 23.8430942,40.8285394,0 23.8419082,40.8285545,0 23.8413628,40.8282589,0 23.8424084,40.8277024,0 23.8415408,40.8265079,0 23.8421962,40.8260647,0 23.8413954,40.8259001,0 23.8420622,40.8252879,0 23.8436532,40.822888,0 23.8401153,40.82187,0 23.8385643,40.8213821,0 23.8375203,40.8215764,0 23.8366413,40.8210047,0 23.8351904,40.8186882,0 23.8330434,40.8180788,0 23.8345518,40.8163803,0 23.8345664,40.8162024,0 23.8346142,40.8146765,0 23.8327579,40.813978,0 23.8303945,40.8158963,0 23.826712,40.8167326,0 23.8240411,40.8184752,0 23.8215537,40.8167672,0 23.8265706,40.8124488,0 23.831958,40.8065082,0 23.8354566,40.8048909,0 23.8418961,40.8033964,0 23.8422322,40.8023465,0 23.84329,40.8008644,0 23.8439429,40.7993541,0 23.8441967,40.7970488,0 23.8448649,40.7956756,0 23.8403014,40.7918976,0 23.8387758,40.7903879,0 23.8372371,40.7884936,0 23.8289233,40.7825966,0 23.8230546,40.7799459,0 23.8207321,40.779351,0 23.8173768,40.7796037,0 23.806245,40.7769721,0 23.7845517,40.7714572,0 23.7706964,40.7624463,0 23.7651854,40.7584359,0 23.7624639,40.7570218,0 23.7486002,40.7582196,0 23.7423434,40.7580125,0 23.7338141,40.7536213,0 23.7101702,40.729737,0 23.7046656,40.7150639,0 23.6949939,40.701164,0 23.690103,40.6940087,0 23.6765064,40.6840358,0 23.6728463,40.6791097,0 23.6706903,40.6740195,0 23.6625913,40.6722441,0 23.6571044,40.6689806,0 23.6555255,40.6672171,0 23.6496356,40.6680776,0 23.6446302,40.6663992,0 23.6329286,40.6592561,0 23.6171328,40.6581144,0 23.6044821,40.6490934,0 23.595877,40.642663,0 23.5514074,40.6274487,0 23.5149645,40.6299845,0 23.4979591,40.6373713,0 23.4862569,40.6380166,0 23.4628961,40.6438668,0 23.4053316,40.6568007,0 23.3886822,40.6570916,0 23.3752211,40.6617192,0 23.3667322,40.6628324,0 23.3581571,40.6633242,0 23.3512296,40.6631309,0 23.3429406,40.6620827,0 23.3394675,40.6605201,0 23.3302971,40.6592721,0 23.3176905,40.6546856,0 23.3075578,40.655048,0 23.288476,40.6485572,0 23.2801366,40.6425962,0 23.2758357,40.6380988,0 23.2691422,40.6361606,0 23.2633724,40.6365281,0 23.2592707,40.6359128,0 23.2555524,40.6353399,0 23.2470118,40.6359538,0 23.2390588,40.6354515,0 23.2333917,40.6339063,0 23.228916,40.6322804,0 23.2254049,40.6320911,0 23.2203091,40.6312299,0 23.2189808,40.6275678,0 23.2168706,40.6269811,0 23.2129903,40.6289272,0 23.1899083,40.6357865,0 23.1761142,40.6480926,0 23.175143,40.6486198,0 23.1540019,40.6560935,0 23.1531501,40.6564288,0 23.1488235,40.658371,0 23.1412116,40.6604218,0 23.1349518,40.6607733,0 23.1306019,40.6605616,0 23.1251505,40.6614742,0 23.1190935,40.6632253,0 23.1137937,40.6650852,0 23.0874482,40.6752185,0 23.0752641,40.6873614,0 23.0174665,40.7221364,0 23.0071822,40.7203955,0 23.0071928,40.7203395,0 23.003091,40.7218421,0 22.9980251,40.7240144,0 22.9963276,40.7251752,0 22.994953,40.7242249,0 22.9941552,40.7248285,0 22.9932078,40.7246681,0 22.9912052,40.7262916,0 22.9883218,40.7254837,0 22.9880581,40.7257084,0 22.986989,40.7268855,0 22.9853848,40.7253792,0 22.9837034,40.7261993,0 22.9652602,40.7169044,0 22.9529261,40.7061756,0 22.9393152,40.6800924,0 22.9407256,40.6721103,0 22.9342897,40.6513658,0 22.9347101,40.6435277,0 22.8449598,40.6889692,0 22.8317429,40.6975131,0 22.8186101,40.6970839,0 22.8104698,40.6949536,0 22.7972767,40.6967689,0 22.744118,40.7045473,0 22.7401089,40.7058884,0 22.7337354,40.7096227,0 22.7172857,40.7157999,0 22.7090029,40.7178316,0 22.6662621,40.7284386,0 22.6486285,40.7234676,0 22.6413683,40.7284949,0 22.6218205,40.7328614,0 22.6053393,40.732349,0 22.6050761,40.7322762,0 22.552247,40.7404009,0 22.5324,40.7492287,0 22.5192668,40.7533784,0 22.512796,40.7566484,0 22.4957578,40.7611028,0 22.4548813,40.7644009,0 22.4472195,40.764396,0 22.4295779,40.7700056,0 22.4226341,40.774793,0 22.4207729,40.7759629,0 22.4147847,40.7816458,0 22.4121025,40.7824143,0 22.4078017,40.7877295,0 22.3810967,40.7807518,0 22.3661043,40.7781343,0 22.3405742,40.7769261,0 22.3308033,40.7729263,0 22.3176707,40.7694628,0 22.3091792,40.7712213,0 22.2987315,40.7741652,0 22.2786348,40.7735906,0 22.2584218,40.7823649,0 22.2323833,40.7876271,0 22.2163821,40.7839615,0 22.1834535,40.7545752,0 22.1740031,40.7537881,0 22.1634002,40.7568577,0 22.1535438,40.7625215,0 22.1218927,40.7670921,0 22.1074916,40.7804402,0 22.1017975,40.7802592,0 22.0914411,40.7824849,0 22.080571,40.7865452,0 22.0772146,40.788665,0 22.0769027,40.7893654,0 22.0743823,40.7903087,0 22.0637187,40.7969428,0 22.055912,40.80294,0 22.0496967,40.8020541,0 22.0444155,40.8024645,0 22.0422217,40.8040566,0 22.0376232,40.8030467,0 22.0326443,40.8050968,0 22.0308728,40.8063332,0 22.0227683,40.8088024,0 22.0179595,40.8095397,0 22.0152469,40.8090047,0 22.0126903,40.8095828,0 22.0121938,40.8086501,0 22.0108278,40.8096634,0 22.0094954,40.8089604,0 22.0084133,40.8092244,0 22.0082618,40.8100123,0 22.0074284,40.8085038,0 22.0067305,40.8074372,0 22.0056208,40.8069298,0 22.0040666,40.8076716,0 22.0017369,40.8072275,0 22.0000819,40.8076135,0 21.9987225,40.8071837,0 21.9977566,40.807231,0 21.9974313,40.8073502,0 21.9967667,40.807928,0 21.9953826,40.8077228,0 21.9939735,40.8078287,0 21.9939852,40.8077927,0 21.9925656,40.8074197,0 21.9904932,40.8076165,0 21.9875982,40.8091259,0 21.985416,40.8098928,0 21.9808068,40.8096328,0 21.9758969,40.8096468,0 21.9723221,40.8082716,0 21.9638716,40.8070399,0 21.9598816,40.8050452,0 21.9530698,40.7984858,0 21.9462136,40.7986514,0 21.9334001,40.7960208,0 21.9205299,40.7975463,0 21.9147031,40.8013777,0 21.9098933,40.8017286,0 21.9101082,40.7931406,0 21.9092452,40.7897459,0 21.9093897,40.788866,0 21.908661,40.7882018,0 21.9077833,40.7866775,0 21.9066077,40.7867488,0 21.9053453,40.7867015,0 21.9015035,40.7852764,0 21.9013137,40.7848258,0 21.8993436,40.7817592,0 21.8972911,40.7809715,0 21.8924824,40.7825102,0 21.8879941,40.786429,0 21.8852954,40.7894174,0 21.8829956,40.7902138,0 21.8789235,40.788279,0 21.8758295,40.7860628,0 21.8704318,40.7840746,0 21.8647333,40.7780303,0 21.862445,40.7737305,0 21.8601748,40.7704714,0 21.8591885,40.7647909,0 21.8575821,40.7570886,0 21.855754,40.751804,0 21.8537152,40.7487378,0 21.8536472,40.7486122,0 21.8528837,40.7468059,0 21.8499658,40.7456603,0 21.8477326,40.7439978,0 21.8467354,40.7426241,0 21.8441222,40.7409556,0 21.8427007,40.7398133,0 21.8424842,40.7386987,0 21.8411289,40.737389,0 21.8394681,40.7372793,0 21.8377717,40.7378808,0 21.8368243,40.7363204,0 21.8344185,40.7352601,0 21.8323052,40.7352688,0 21.8281372,40.7324827,0 21.8275532,40.729812,0 21.8275624,40.726751,0 21.8260855,40.7238008,0 21.8257784,40.7217715,0 21.8158052,40.711124,0 21.8133539,40.7115184,0 21.8132478,40.7112637,0 21.8102977,40.7084624,0 21.8077728,40.7065658,0 21.8059068,40.7064304,0 21.8044254,40.707797,0 21.7989387,40.7080381,0 21.7977972,40.7084009,0 21.7972612,40.7091302,0 21.7972101,40.7091274,0 21.7954517,40.7100397,0 21.7953865,40.7113186,0 21.7951846,40.7117113,0 21.7935846,40.7114948,0 21.7926801,40.7118701,0 21.7920983,40.7129506,0 21.7907937,40.7135269,0 21.7867134,40.7116002,0 21.7844681,40.70993,0 21.7831944,40.7088942,0 21.7807779,40.70833,0 21.7781878,40.7091873,0 21.7764603,40.7077117,0 21.7726281,40.706589,0 21.7724316,40.7056276,0 21.7708435,40.7043225,0 21.7714732,40.7018146,0 21.7736762,40.7010513,0 21.774574,40.6992686,0 21.7745906,40.6992168,0 21.7752328,40.6977746,0 21.7746558,40.6944431,0 21.7725052,40.6915942,0 21.7699566,40.6893275,0 21.7590917,40.6811632,0 21.7509113,40.6757809,0 21.7466907,40.6745872,0 21.7382123,40.6771169,0 21.7328585,40.6811226,0 21.7307325,40.6814236,0 21.7280486,40.6808613,0 21.7234099,40.6835009,0 21.7187612,40.6820063,0 21.7158075,40.6807287,0 21.7129431,40.679861,0 21.7074079,40.677985,0 21.7064742,40.6781314,0 21.7047897,40.6778385,0 21.703186,40.6780067,0 21.701587,40.6774682,0 21.7010125,40.6779423,0 21.6984415,40.6801045,0 21.6976355,40.6811805,0 21.6977756,40.6818076,0 21.6985271,40.6830033,0 21.6963774,40.6836381,0 21.6920568,40.6856517,0 21.690496,40.6865667,0 21.6902588,40.6869455,0 21.6877562,40.6877199,0 21.6855189,40.6889537,0 21.682445,40.6895329,0 21.6723392,40.6927327,0 21.666489,40.6951193,0 21.662992,40.6963648,0 21.6622453,40.6981688,0 21.6629815,40.7025351,0 21.663047,40.7091913,0 21.6664543,40.7176887,0 21.6666022,40.7223481,0 21.667008,40.7238739,0 21.6660926,40.7247813,0 21.6616693,40.7224651,0 21.6598607,40.7221085,0 21.6573305,40.7233516,0 21.6559136,40.7237781,0 21.6556726,40.7246969,0 21.6548962,40.727357,0 21.6537199,40.728894,0 21.653447,40.7303652,0 21.6509059,40.7313541,0 21.6500684,40.7323019,0 21.6486331,40.7343539,0 21.6482262,40.7369655,0 21.648778,40.7376832,0 21.6441464,40.7412638,0 21.6440547,40.7430641,0 21.6415078,40.7432151,0 21.6390398,40.7450223,0 21.6397776,40.7467489,0 21.6398104,40.749606,0 21.6387242,40.7513526,0 21.6359699,40.7514748,0 21.6336194,40.7508943,0 21.6315868,40.7504431,0 21.6285312,40.7525788,0 21.621362,40.7524341,0 21.6213473,40.7524409,0 21.6143757,40.752936,0 21.6119548,40.7544852,0 21.610593,40.7544884,0 21.6088635,40.7548638,0 21.6065593,40.7562448,0 21.6037185,40.7594719,0 21.602201,40.7602873,0 21.5772761,40.7719286,0 21.5712242,40.7730999,0 21.5629797,40.7724703,0 21.5505033,40.7716854,0 21.5456772,40.7731963,0 21.5388442,40.7748223,0 21.5348444,40.7747453,0 21.5321756,40.7749026,0 21.5117165,40.7768698,0 21.5032516,40.7738217,0 21.5017522,40.7738619,0 21.4998066,40.7736083,0 21.4917619,40.7781754,0 21.4916449,40.7783155,0 21.4888469,40.7793776,0 21.4887706,40.7794867,0 21.4831406,40.7832521,0 21.4456474,40.8152616,0 21.4331703,40.8710419,0 21.4280406,40.9235868,0 21.3870677,40.9834327,0 21.374122,40.998631,0 21.3686981,41.0037804,0 21.3553752,41.0099783,0 21.3446317,41.014821,0 21.3393091,41.0239252,0 21.2994558,41.0377103,0 21.2864169,41.0479746,0 21.2838552,41.0487339,0 21.2806009,41.0506529,0 21.2797842,41.0522653,0 21.2793382,41.0531131,0 21.279373,41.0530458,0 21.2751229,41.0558897,0 21.2709436,41.0576104,0 21.2675763,41.059964,0 21.2635421,41.0608583,0 21.259843,41.0626196,0 21.2583141,41.0649019,0 21.2570276,41.0660438,0 21.2549649,41.0669163,0 21.249701,41.0672367,0 21.2416285,41.0701447,0 21.2392421,41.0702157,0 21.2347227,41.0696934,0 21.2334425,41.0705352,0 21.233391,41.0704929,0 21.2281184,41.0703028,0 21.2247371,41.0707123,0 21.2204891,41.0717081,0 21.2144073,41.0707137,0 21.2100049,41.0705272,0 21.2078056,41.070997,0 21.2040677,41.0700871,0 21.2010456,41.0703074,0 21.1971811,41.071883,0 21.1949728,41.0715111,0 21.185918,41.0701115,0 21.1663753,41.0696781,0 21.1465414,41.065309,0 21.1446061,41.0662583,0 21.1440602,41.0669884,0 21.1447337,41.0676307,0 21.1446214,41.0683045,0 21.1450535,41.0690503,0 21.1448383,41.0701084,0 21.1444711,41.0702761,0 21.1440436,41.0703255,0 21.1432293,41.0701686,0 21.143259,41.070135,0 21.1420369,41.0717746,0 21.1402751,41.0720088,0 21.1368085,41.0706108,0 21.1354054,41.0710297,0 21.1335971,41.0704594,0 21.1332013,41.0692194,0 21.1326499,41.0689718,0 21.1322137,41.069318,0 21.1318307,41.0694577,0 21.1315518,41.0693549,0 21.129918,41.0680961,0 21.1282909,41.0673729,0 21.1268519,41.0669472,0 21.1260259,41.0670235,0 21.1257362,41.0678047,0 21.1260131,41.0684353,0 21.1254459,41.0687907,0 21.1249216,41.0684347,0 21.1246228,41.0680035,0 21.1241411,41.0676294,0 21.1231642,41.0677114,0 21.1220548,41.0670862,0 21.121134,41.0664169,0 21.1188833,41.0640319,0 21.1183292,41.063851,0 21.1178955,41.0646762,0 21.1162169,41.0653249,0 21.1128879,41.0651319,0 21.1107108,41.0640349,0 21.1102041,41.0641424,0 21.1103696,41.0653954,0 21.1099557,41.0659546,0 21.1061045,41.0653431,0 21.1040144,41.06542,0 21.0996446,41.0655288,0 21.0988561,41.0646691,0 21.0975865,41.0644165,0 21.0956332,41.0650086,0 21.094766,41.0650449,0 21.093159,41.0655454,0 21.0923129,41.0654419,0 21.0911405,41.0659463,0 21.0898802,41.0657943,0 21.0884534,41.0651789,0 21.0858113,41.0656021,0 21.0842275,41.0649997,0 21.0837334,41.0648968,0 21.0829983,41.0652271,0 21.0806914,41.0653405,0 21.0802038,41.0648369,0 21.0784364,41.0649886,0 21.0772286,41.0639303,0 21.0753953,41.0632323,0 21.0740071,41.0618523,0 21.0707311,41.0622365,0 21.0665995,41.0620691,0 21.0658713,41.0615462,0 21.065344,41.06161,0 21.0628533,41.0625461,0 21.0618464,41.0626107,0 21.0590288,41.0646325,0 21.0525006,41.0672665,0 21.0540536,41.0713929,0 21.0520796,41.0716805,0 21.0494921,41.073741,0 21.0463182,41.0753965,0 21.0451494,41.0768894,0 21.0455977,41.0783208,0 21.0408932,41.0806554,0 21.039104,41.0804293,0 21.0367259,41.0803362,0 21.0346618,41.0800024,0 21.0346148,41.0800128,0 21.0336602,41.0805385,0 21.0336011,41.0806184,0 21.0324299,41.0817974,0 21.031146,41.0826532,0 21.0291971,41.0829835,0 21.0269438,41.0825534,0 21.0254055,41.0838696,0 21.0251318,41.0838955,0 21.0213067,41.0837611,0 21.0190327,41.0862884,0 21.016725,41.0883391,0 21.015175,41.08983,0 21.0128067,41.0920666,0 21.0112659,41.0927545,0 21.0109932,41.0938072,0 21.0109974,41.0939019,0 21.0117431,41.0956296,0 21.0118025,41.0958043,0 21.011505,41.0970278,0 21.0118093,41.1001776,0 21.0107904,41.1017512,0 21.0123683,41.1062714,0 21.0111211,41.1094539,0 21.0115801,41.1120898,0 21.0126384,41.112899,0 21.0129545,41.1132168,0 21.0128846,41.1137315,0 21.0117851,41.1148536,0 21.0108177,41.1182427,0 21.0092798,41.1200908,0 21.0092812,41.1202385,0 21.0090793,41.1218968,0 21.0083281,41.1232472,0 21.0074439,41.1258978,0 21.0065625,41.1265422,0 21.0065371,41.1265993,0 21.0063656,41.1276415,0 21.0053263,41.1288789,0 21.0051166,41.1302424,0 21.0051057,41.1312986,0 21.0044423,41.1318118,0 21.0041338,41.1326279,0 21.0040774,41.133369,0 21.0043595,41.1337924,0 21.0049651,41.1344591,0 21.0051101,41.135355,0 21.0049481,41.1375149,0 21.0046292,41.1391561,0 21.0040878,41.1396114,0 21.0011802,41.1397694,0 21.0005838,41.1408928,0 21.0003492,41.141426,0 21.0003243,41.1418763,0 21.0003917,41.1427293,0 20.9994767,41.1438732,0 20.9981207,41.1448253,0 20.9965313,41.1451932,0 20.9943655,41.1453838,0 20.9920652,41.1462567,0 20.9904203,41.1466786,0 20.9900969,41.1469231,0 20.9894689,41.1480511,0 20.9892153,41.1494092,0 20.9880973,41.1502068,0 20.9870655,41.1524663,0 20.9861067,41.1540765,0 20.9855638,41.1544465,0 20.9842636,41.1560888,0 20.9824195,41.158306,0 20.9809242,41.1589474,0 20.9800944,41.1590308,0 20.9795546,41.15888,0 20.9784502,41.1590229,0 20.9751262,41.1609004,0 20.972831,41.1610136,0 20.9723899,41.1614855,0 20.9706076,41.1612733,0 20.9698774,41.1607404,0 20.9689318,41.1604637,0 20.9680344,41.1609748,0 20.9675332,41.1610692,0 20.9667889,41.161159,0 20.9658985,41.160946,0 20.9614698,41.1593811,0 20.95548,41.1588611,0 20.9536617,41.1597377,0 20.9504637,41.1596169,0 20.9493592,41.1599619,0 20.9474546,41.1615332,0 20.9452623,41.1645219,0 20.944863,41.1655145,0 20.9447055,41.166586,0 20.9447133,41.1665701,0 20.9447946,41.16776,0 20.9453881,41.1694994,0 20.9450031,41.1701246,0 20.9436788,41.1720603,0 20.9447748,41.1732829,0 20.9473402,41.1736344,0 20.9489881,41.1760316,0 20.9499968,41.1772413,0 20.9511911,41.1785551,0 20.9521913,41.1792259,0 20.9525523,41.1795378,0 20.9527992,41.1801484,0 20.9517917,41.1811211,0 20.9525574,41.1821294,0 20.9524423,41.1827357,0 20.9512726,41.1837188,0 20.9510242,41.1838545,0 20.9505717,41.1845895,0 20.9512313,41.184876,0 20.9513512,41.1856637,0 20.950678,41.1863171,0 20.949153,41.1868183,0 20.946683,41.1882158,0 20.9448974,41.1911279,0 20.9440322,41.1920172,0 20.9412252,41.1932068,0 20.9405096,41.193733,0 20.9399514,41.1945841,0 20.9398751,41.1945969,0 20.9397816,41.1946429,0 20.938866,41.1951726,0 20.9369197,41.1954073,0 20.9338121,41.1960572,0 20.9325371,41.196863,0 20.9310001,41.1971337,0 20.9296274,41.1979725,0 20.9266262,41.1971973,0 20.9246999,41.1963827,0 20.9235857,41.1962468,0 20.921787,41.1965949,0 20.9204873,41.1967391,0 20.9190314,41.1970697,0 20.9181235,41.19761,0 20.9177103,41.1979377,0 20.91598,41.1982942,0 20.9144998,41.1990934,0 20.9138526,41.1996482,0 20.9132421,41.2005309,0 20.9122215,41.2010294,0 20.9105706,41.2033628,0 20.9074749,41.2043041,0 20.9014574,41.2049971,0 20.9003351,41.2045638,0 20.9003051,41.2045314,0 20.8982805,41.2027624,0 20.8978671,41.2020294,0 20.8974722,41.2016574,0 20.8965197,41.2013059,0 20.8957096,41.2013714,0 20.8948306,41.2018237,0 20.8942155,41.2019851,0 20.8930402,41.2018994,0 20.8919937,41.2012925,0 20.8906656,41.2005079,0 20.8891539,41.1998174,0 20.8884225,41.1986962,0 20.8873803,41.1982277,0 20.8831664,41.1980479,0 20.8751547,41.1958389,0 20.8729828,41.1940153,0 20.8717473,41.1926031,0 20.8714254,41.1910557,0 20.8702632,41.1903504,0 20.8698756,41.1899646,0 20.8673951,41.1867889,0 20.8681678,41.185619,0 20.8680648,41.183678,0 20.8669381,41.182125,0 20.8670551,41.1807894,0 20.8659863,41.1789353,0 20.8639009,41.1778739,0 20.8624956,41.175793,0 20.8611228,41.1760742,0 20.8602845,41.175417,0 20.8598857,41.1747292,0 20.8585491,41.1743654,0 20.8577875,41.1736388,0 20.8550199,41.1727116,0 20.8539241,41.1723729,0 20.8514162,41.1733723,0 20.8495064,41.1732652,0 20.8489617,41.1737131,0 20.8470278,41.1750966,0 20.8457778,41.175108,0 20.843684,41.1741127,0 20.8431248,41.1741035,0 20.8421329,41.1743056,0 20.8388452,41.1755372,0 20.83788,41.1758157,0 20.8372798,41.1749819,0 20.8366235,41.1744947,0 20.8359678,41.1714175,0 20.8333982,41.1686316,0 20.8300149,41.1586287,0 20.8274007,41.150519,0 20.8200599,41.1393356,0 20.8161346,41.1272633,0 20.7988514,41.1141123,0 20.7996111,41.1118784,0 20.7952166,41.1159415,0 20.7789649,41.1256626,0 20.7750662,41.1253664,0 20.7706464,41.1277288,0 20.7616309,41.1366664,0 20.7602557,41.1407055,0 20.7593842,41.1442205,0 20.7565162,41.1510801,0 20.7528557,41.1590306,0 20.7521653,41.1600315,0 20.7512043,41.1642251,0 20.7462557,41.1679914,0 20.7394993,41.1697645,0 20.7328101,41.1702156,0 20.7237703,41.1724956,0 20.7189331,41.1734838,0 20.7123154,41.1733743,0 20.704502,41.1732958,0 20.6787121,41.1748543,0 20.6595211,41.1704106,0 20.6592535,41.1702914,0 20.6584385,41.170041,0 20.6530052,41.1673321,0 20.651428,41.1640403,0 20.6498681,41.1553703,0 20.6513487,41.153109,0 20.6507522,41.1492044,0 20.6490105,41.148926,0 20.6488747,41.1488389,0 20.646585,41.1478254,0 20.6464832,41.1477067,0 20.6450701,41.1468791,0 20.6440739,41.1459133,0 20.6447542,41.1441494,0 20.6453053,41.1433783,0 20.6453734,41.1419163,0 20.645125,41.1415494,0 20.6449806,41.1407593,0 20.6457431,41.1397944,0 20.6454769,41.139299,0 20.6459258,41.1389756,0 20.6459963,41.1385728,0 20.6459465,41.138342,0 20.6452833,41.1375449,0 20.645395,41.1365148,0 20.6451799,41.1357342,0 20.6406444,41.1325576,0 20.6392618,41.1278863,0 20.6396937,41.1232887,0 20.6367959,41.1157787,0 20.6334492,41.1086755,0 20.6329143,41.1033486,0 20.6335126,41.1023153,0 20.6334518,41.1022987,0 20.6327278,41.1020005,0 20.6327645,41.1013932,0 20.6326521,41.1004452,0 20.6316049,41.0994708,0 20.63108,41.0998628,0 20.6303922,41.1010155,0 20.6289463,41.100485,0 20.6284018,41.0999124,0 20.6274389,41.0984166,0 20.6256226,41.0979077,0 20.6240174,41.099316,0 20.6237252,41.1003891,0 20.6229665,41.1002267,0 20.6227498,41.0994357,0 20.6227277,41.0994078,0 20.6221472,41.0996356,0 20.6215519,41.0986425,0 20.6202606,41.0973313,0 20.6192437,41.0964086,0 20.6168309,41.0956076,0 20.6154768,41.0951264,0 20.6148159,41.094565,0 20.6141804,41.09444,0 20.6135229,41.0946837,0 20.6132823,41.0947421,0 20.6108668,41.0943684,0 20.6108617,41.0943492,0 20.6088587,41.0912844,0 20.6049578,41.0844791,0 20.6045166,41.081255,0 20.6049199,41.0804239,0 20.606763,41.079106,0 20.6068196,41.0761396,0 20.606704,41.0761079,0 20.605163,41.0754337,0 20.60512,41.0753147,0 20.6053907,41.0741394,0 20.6053404,41.0740898,0 20.6047388,41.0733989,0 20.6056071,41.0722444,0 20.6058665,41.0672804,0 20.6058502,41.0672253,0 20.6073842,41.0660707,0 20.6074762,41.0660416,0 20.6086067,41.0654073,0 20.6084349,41.0650957,0 20.6062596,41.0656578,0 20.606221,41.0656586,0 20.604494,41.0659996,0 20.6040547,41.065436,0 20.6018587,41.0651975,0 20.6005397,41.0656393,0 20.5995205,41.0655546,0 20.5986425,41.0652158,0 20.5977981,41.0649034,0 20.5968615,41.0641487,0 20.59614,41.0636009,0 20.5957523,41.0632965,0 20.595798,41.0636333,0 20.5952653,41.0637955,0 20.5944768,41.0635113,0 20.5924568,41.0646108,0 20.5902914,41.0639591,0 20.5902443,41.0645273,0 20.5925653,41.0651764,0 20.5926266,41.0664272,0 20.5909399,41.0676548,0 20.5900754,41.0677065,0 20.5888461,41.0679875,0 20.588424,41.0685124,0 20.5889679,41.0692146,0 20.5905463,41.0692185,0 20.5913606,41.0688504,0 20.5913884,41.0688178,0 20.5921101,41.0685555,0 20.5921062,41.0685179,0 20.5924752,41.0687006,0 20.5924279,41.0687897,0 20.5919584,41.0693595,0 20.5919343,41.0694386,0 20.5918707,41.0695489,0 20.5916174,41.07007,0 20.5909121,41.0707904,0 20.5908101,41.0708644,0 20.5900111,41.0720418,0 20.5899481,41.0720963,0 20.5888557,41.0725473,0 20.5883038,41.073022,0 20.5882633,41.0730424,0 20.587836,41.0734654,0 20.5872986,41.0736452,0 20.587556,41.072983,0 20.5878946,41.0724862,0 20.5871954,41.0710396,0 20.5865128,41.0705349,0 20.5762071,41.0701703,0 20.5740263,41.0693679,0 20.5655091,41.06928,0 20.5637318,41.0711016,0 20.5581617,41.0715299,0 20.5490776,41.0696608,0 20.5435026,41.0671409,0 20.5368847,41.0658659,0 20.5308702,41.063663,0 20.5283237,41.0630396,0 20.5268749,41.0632757,0 20.5227696,41.0647599,0 20.5212528,41.0655482,0 20.5201899,41.0658104,0 20.5191938,41.0667909,0 20.5183755,41.0669833,0 20.5168801,41.066474,0 20.5163817,41.066566,0 20.5159476,41.0668468,0 20.5147577,41.0681629,0 20.5135494,41.0702815,0 20.513424,41.0711259,0 20.5124364,41.0717641,0 20.5124771,41.0731628,0 20.5109016,41.0736964,0 20.510164,41.073054,0 20.5096148,41.0726936,0 20.5075841,41.0737427,0 20.5061743,41.0731939,0 20.5038673,41.0730212,0 20.5014977,41.0735924,0 20.4990008,41.0748916,0 20.4985295,41.0749522,0 20.4956962,41.0749038,0 20.4940426,41.0743923,0 20.4905713,41.0751079,0 20.4890598,41.074969,0 20.4877633,41.0757861,0 20.4874685,41.0755551,0 20.48684,41.0751685,0 20.4861537,41.0746792,0 20.4852535,41.0747938,0 20.4848026,41.0749159,0 20.4841695,41.0750084,0 20.4819435,41.0744276,0 20.4819001,41.0743986,0 20.4818372,41.074384,0 20.4804454,41.074671,0 20.4803986,41.0746645,0 20.4797219,41.0742442,0 20.4787564,41.0740765,0 20.4766992,41.0735843,0 20.4757851,41.0736588,0 20.4732982,41.0745199,0 20.468241,41.0726693,0 20.4668824,41.0728392,0 20.4641236,41.0736169,0 20.4633448,41.0746376,0 20.4626244,41.0750895,0 20.4616298,41.0761319,0 20.4601039,41.0787454,0 20.4597923,41.078823,0 20.4586579,41.0786879,0 20.4581511,41.078254,0 20.4569438,41.0783353,0 20.4556485,41.0789247,0 20.4535807,41.0787979,0 20.4516887,41.0788001,0 20.4497718,41.0782515,0 20.4477377,41.0771809,0 20.4456777,41.0780735,0 20.4423241,41.0773863,0 20.4396061,41.0791026,0 20.438667,41.0805589,0 20.4381923,41.0815922,0 20.4377094,41.0819741,0 20.4369949,41.0822391,0 20.4367288,41.0822234,0 20.4358701,41.0822594,0 20.4353275,41.0835223,0 20.4348768,41.0843598,0 20.4348397,41.0853749,0 20.4339654,41.0865445,0 20.4335917,41.0874271,0 20.4321611,41.0872953,0 20.4318341,41.0879339,0 20.4335402,41.0891788,0 20.4323696,41.0901118,0 20.4327279,41.0904877,0 20.4327301,41.0915935,0 20.4330923,41.091457,0 20.433142,41.0926439,0 20.4346169,41.0933314,0 20.435193,41.0939388,0 20.435257,41.0941683,0 20.4344944,41.0945605,0 20.4342648,41.0949398,0 20.4341666,41.0954317,0 20.4340986,41.0958724,0 20.4337824,41.0961702,0 20.4322164,41.0962175,0 20.4317937,41.0963207,0 20.4312242,41.0961662,0 20.4306118,41.0963811,0 20.4300518,41.0971478,0 20.4285466,41.0974088,0 20.4279365,41.0974574,0 20.4274908,41.0975674,0 20.4274874,41.097581,0 20.4272992,41.0978185,0 20.4263862,41.0983666,0 20.4258437,41.0983361,0 20.4249711,41.0987905,0 20.4232631,41.0990092,0 20.4199519,41.1001725,0 20.4179499,41.1012637,0 20.4165265,41.101684,0 20.4159381,41.1017111,0 20.4159118,41.1017053,0 20.414619,41.1017167,0 20.4130966,41.1015011,0 20.4125567,41.1017921,0 20.412064,41.1031377,0 20.411974,41.103628,0 20.4105943,41.1037681,0 20.4097176,41.1039653,0 20.4096835,41.1038886,0 20.4095761,41.1038766,0 20.4092843,41.1036144,0 20.409118,41.1032664,0 20.4085348,41.1029544,0 20.4083104,41.1028613,0 20.4079456,41.1030341,0 20.4075744,41.1033034,0 20.4080308,41.1031559,0 20.4083852,41.1031692,0 20.4085646,41.1033161,0 20.4086286,41.1035317,0 20.4085105,41.1035876,0 20.4085016,41.1035718,0 20.4083039,41.1033644,0 20.4082217,41.1033459,0 20.4079052,41.103417,0 20.4078717,41.1034165,0 20.4075325,41.1035221,0 20.4075083,41.1034962,0 20.4072374,41.1033595,0 20.4069178,41.1032303,0 20.40674,41.1032796,0 20.4067365,41.1034971,0 20.406996,41.1039957,0 20.4070646,41.1041685,0 20.4066694,41.1046986,0 20.4066266,41.1051445,0 20.4059008,41.1057506,0 20.4053488,41.105885,0 20.4049172,41.105475,0 20.4043471,41.1055028,0 20.4031802,41.1055428,0 20.4027466,41.1058569,0 20.4028839,41.106059,0 20.4034674,41.1062383,0 20.4037355,41.1066429,0 20.4037513,41.1066438,0 20.4042561,41.1069518,0 20.4042734,41.1069673,0 20.4043254,41.1071218,0 20.4046445,41.1074487,0 20.4049303,41.1077705,0 20.4050689,41.1083764,0 20.4051766,41.1083917,0 20.405231,41.1084439,0 20.4049023,41.1085684,0 20.4046898,41.108006,0 20.4040223,41.1081748,0 20.4034821,41.1081526,0 20.4033401,41.1087824,0 20.402949,41.1090003,0 20.4029691,41.1092648,0 20.4029804,41.1092461,0 20.4015493,41.1100306,0 20.4013288,41.110549,0 20.4005357,41.1104795,0 20.3988738,41.1126404,0 20.3974688,41.1145101,0 20.3954919,41.1159676,0 20.3936272,41.1166456,0 20.3932516,41.1175802,0 20.3926391,41.1183954,0 20.3921306,41.1193147,0 20.3920496,41.1200901,0 20.3916534,41.1205009,0 20.3916798,41.1208998,0 20.3907279,41.1218425,0 20.3884383,41.1220873,0 20.3876027,41.1227775,0 20.387355,41.1225866,0 20.3851172,41.122981,0 20.3832704,41.1230038,0 20.3828476,41.1232727,0 20.3835536,41.1231872,0 20.3847917,41.1233589,0 20.3859925,41.1233669,0 20.3859876,41.1234739,0 20.3843523,41.1235063,0 20.3842821,41.1235293,0 20.3842115,41.1235614,0 20.3835858,41.1237411,0 20.3822712,41.1235518,0 20.3810108,41.1231978,0 20.3807732,41.1246058,0 20.3808108,41.1246569,0 20.3805232,41.1242632,0 20.3803129,41.1247913,0 20.3801299,41.124482,0 20.3803286,41.1238567,0 20.3801873,41.123955,0 20.3795497,41.1251367,0 20.3790761,41.1254009,0 20.3788739,41.1254554,0 20.3786363,41.1255934,0 20.3788047,41.1258022,0 20.3787864,41.1259829,0 20.3784271,41.1260953,0 20.3780626,41.1259769,0 20.3780625,41.1259444,0 20.3775714,41.1260066,0 20.376993,41.1266989,0 20.3739093,41.1268583,0 20.3730873,41.1273865,0 20.3721023,41.127438,0 20.3715925,41.1281543,0 20.3713232,41.1282686,0 20.3712548,41.1282562,0 20.3708223,41.1288024,0 20.3701649,41.1293413,0 20.369703,41.1294743,0 20.3685826,41.1307845,0 20.3680886,41.1317612,0 20.3683442,41.1320319,0 20.368258,41.1325585,0 20.3672199,41.1331792,0 20.365854,41.1334179,0 20.3651125,41.1339651,0 20.3646367,41.1342027,0 20.364206,41.1346835,0 20.3617838,41.1352567,0 20.3595413,41.1356411,0 20.3588311,41.1353956,0 20.3580192,41.1359385,0 20.3560265,41.1362043,0 20.3551096,41.1364236,0 20.353476,41.1366503,0 20.3529309,41.1365065,0 20.3509171,41.1358305,0 20.3507062,41.1358649,0 20.3512884,41.1373377,0 20.3511229,41.137594,0 20.3506621,41.1378863,0 20.3496993,41.1392136,0 20.3474645,41.1397974,0 20.3474479,41.1400315,0 20.3477255,41.1402795,0 20.3478316,41.1409555,0 20.3476146,41.1413137,0 20.347692,41.14183,0 20.3473219,41.1427566,0 20.3474515,41.1429926,0 20.3475626,41.1435893,0 20.3471976,41.1440568,0 20.3443466,41.1450846,0 20.3436411,41.1457713,0 20.3426254,41.1466443,0 20.3425873,41.1471029,0 20.3419734,41.1478615,0 20.3407915,41.1479655,0 20.338362,41.14723,0 20.3373484,41.1481912,0 20.3357457,41.1487694,0 20.3356858,41.1487497,0 20.3347837,41.1481948,0 20.334025,41.1487541,0 20.3324848,41.1485723,0 20.330633,41.149293,0 20.3290816,41.1498426,0 20.329679,41.150665,0 20.3279777,41.1516018,0 20.3274788,41.1500849,0 20.3268191,41.149987,0 20.3261006,41.1505438,0 20.3243081,41.1489208,0 20.3239195,41.1492209,0 20.3239183,41.1497445,0 20.3210515,41.1508698,0 20.3204698,41.1507064,0 20.318264,41.1520504,0 20.3177137,41.1518568,0 20.3172668,41.1509814,0 20.3158368,41.1515021,0 20.3155966,41.1515058,0 20.3145338,41.1506411,0 20.3145383,41.1497555,0 20.3141114,41.1489488,0 20.3105941,41.1486131,0 20.3092761,41.14976,0 20.3091158,41.1497321,0 20.3076288,41.149669,0 20.307392,41.150603,0 20.3076485,41.1516389,0 20.3068089,41.1518803,0 20.3050088,41.1509284,0 20.3048779,41.1510389,0 20.3044517,41.1525039,0 20.3036412,41.153152,0 20.2996621,41.149761,0 20.2992578,41.1500295,0 20.2986978,41.1516015,0 20.2995308,41.1531732,0 20.3006949,41.1554695,0 20.3006983,41.1554447,0 20.3015431,41.154365,0 20.302049,41.1557123,0 20.3010001,41.156034,0 20.3001303,41.1570074,0 20.3006873,41.1581303,0 20.2989791,41.1590591,0 20.2984978,41.1601355,0 20.2985622,41.1604173,0 20.2999506,41.1608953,0 20.3001122,41.161255,0 20.3003291,41.1621941,0 20.2988445,41.1627528,0 20.2982959,41.1623843,0 20.2989112,41.1614482,0 20.2978276,41.1607091,0 20.2976293,41.1616297,0 20.2968554,41.1606517,0 20.2950733,41.160087,0 20.291832,41.1600731,0 20.2905617,41.1596133,0 20.2895712,41.1604527,0 20.289752,41.1607475,0 20.2895741,41.1610105,0 20.289224,41.1615018,0 20.2887625,41.1618007,0 20.2880041,41.1626581,0 20.2874556,41.1625443,0 20.2853481,41.162141,0 20.284576,41.1617267,0 20.2824593,41.1622716,0 20.2825071,41.1631125,0 20.2822387,41.1636313,0 20.2818156,41.1636833,0 20.2812764,41.1631274,0 20.2806909,41.1633375,0 20.2793577,41.1640651,0 20.2784227,41.1640041,0 20.2780818,41.1638229,0 20.277226,41.1646316,0 20.2766313,41.1646,0 20.275795,41.1636918,0 20.2755651,41.1629004,0 20.2745199,41.162255,0 20.2739182,41.1619542,0 20.2738099,41.1620889,0 20.2745342,41.1626726,0 20.2741394,41.1627426,0 20.2730323,41.1619796,0 20.272494,41.1608365,0 20.2716027,41.1621077,0 20.2700949,41.162082,0 20.2686277,41.1625706,0 20.2683151,41.1633738,0 20.2675763,41.1642765,0 20.2679477,41.1651147,0 20.2677113,41.1669334,0 20.2665931,41.1657766,0 20.2661165,41.1657738,0 20.265738,41.1663757,0 20.2650392,41.1669006,0 20.2652301,41.1674693,0 20.2644121,41.1678573,0 20.2643017,41.1687573,0 20.2639547,41.1695338,0 20.2633322,41.1698295,0 20.2622814,41.1690554,0 20.2616018,41.169175,0 20.2622525,41.1701337,0 20.262351,41.1704563,0 20.2617638,41.1707722,0 20.2605632,41.1709825,0 20.2593143,41.1714401,0 20.2577199,41.1719288,0 20.2568128,41.1721798,0 20.2548719,41.1713723,0 20.2539347,41.1708082,0 20.2532446,41.1696726,0 20.2518744,41.169594,0 20.25098,41.1679077,0 20.2442074,41.1664333,0 20.2430875,41.1650149,0 20.2411783,41.1647447,0 20.239254,41.1649491,0 20.2391913,41.1649515,0 20.2369454,41.1658954,0 20.2345431,41.1662289,0 20.2321807,41.16635,0 20.2300005,41.1650512,0 20.2296314,41.1647644,0 20.2291088,41.1645407,0 20.2283675,41.1645288,0 20.2275557,41.1644008,0 20.2266541,41.1644227,0 20.2253045,41.1647924,0 20.223926,41.1653372,0 20.2207855,41.1664942,0 20.218764,41.1668276,0 20.2113728,41.1675631,0 20.2073417,41.1663006,0 20.2050391,41.1659185,0 20.2010738,41.1660983,0 20.2002485,41.1663579,0 20.199767,41.1670729,0 20.199416,41.1672431,0 20.199106,41.1673184,0 20.1981624,41.1669264,0 20.1969989,41.1662087,0 20.1970713,41.165624,0 20.197041,41.1648857,0 20.1968937,41.1642992,0 20.1958396,41.1630479,0 20.1951475,41.1623792,0 20.1945136,41.162048,0 20.1926072,41.1606373,0 20.188445,41.1601386,0 20.1839118,41.1588918,0 20.1826937,41.1589433,0 20.1798194,41.1599524,0 20.1778564,41.1601883,0 20.176059,41.1604193,0 20.1746134,41.1601999,0 20.1722013,41.1592134,0 20.1697924,41.1579487,0 20.1679515,41.1573746,0 20.1657964,41.1561064,0 20.1649503,41.1544931,0 20.1649483,41.1544479,0 20.1641677,41.1521521,0 20.1618294,41.1496802,0 20.1568433,41.1458138,0 20.1550989,41.1444254,0 20.1484046,41.1401762,0 20.1404353,41.1343808,0 20.135724,41.1315547,0 20.1283666,41.1277857,0 20.1246013,41.1261178,0 20.1231594,41.1253263,0 20.1200912,41.1242132,0 20.1128727,41.1235321,0 20.1087097,41.1220603,0 20.1025632,41.1216976,0 20.0974441,41.1199803,0 20.0912557,41.1167416,0 20.087166,41.1152243,0 20.0863092,41.1142467,0 20.0805929,41.1124996,0 20.0777087,41.111937,0 20.0727778,41.1124553,0 20.0679415,41.1103976,0 20.0650926,41.1088721,0 20.0624534,41.1064526,0 20.0590619,41.105535,0 20.0520314,41.1049648,0 20.0440851,41.1042446,0 20.0287086,41.1000734,0 20.0226649,41.0985321,0 20.0200308,41.0966927,0 20.0181353,41.0941532,0 20.0120705,41.0918254,0 20.0076622,41.0913842,0 20.0050285,41.0916444,0 20.0029561,41.0904795,0 20.002907,41.090439,0 19.9898318,41.0773564,0 19.9789136,41.0650568,0 19.9752658,41.0581823,0 19.9716232,41.0529758,0 19.9707709,41.0518245,0 19.9687633,41.0508875,0 19.9652995,41.0504411,0 19.9630129,41.0501223,0 19.9623285,41.0507903,0 19.9616662,41.0514615,0 19.9605361,41.0521012,0 19.9597883,41.0521648,0 19.9593929,41.0520694,0 19.9582439,41.0510197,0 19.9550448,41.0535886,0 19.9540459,41.0544222,0 19.9527915,41.0558553,0 19.9505388,41.0567649,0 19.9493073,41.0568718,0 19.9480904,41.056519,0 19.9470283,41.0561451,0 19.9455587,41.0556473,0 19.942755,41.0544104,0 19.9418553,41.0543202,0 19.9409259,41.0541952,0 19.93992,41.054221,0 19.937945,41.0547785,0 19.935722,41.0561747,0 19.9349941,41.056538,0 19.9345646,41.0567444,0 19.9340161,41.0570428,0 19.9325482,41.0579427,0 19.9308021,41.0596845,0 19.9283136,41.0638107,0 19.9261364,41.06601,0 19.9243265,41.0672218,0 19.9213044,41.0693152,0 19.9188902,41.0719148,0 19.9169847,41.0721269,0 19.9146317,41.0716839,0 19.9129579,41.0715803,0 19.9086647,41.0721767,0 19.9044831,41.0716034,0 19.8999524,41.0727907,0 19.8917952,41.069594,0 19.8896528,41.0678244,0 19.8880966,41.0666867,0 19.8838563,41.0653613,0 19.880274,41.0637934,0 19.8793184,41.0624332,0 19.8720945,41.0623736,0 19.8688899,41.0622142,0 19.8638943,41.0607095,0 19.8600398,41.0603416,0 19.8567618,41.0585698,0 19.8558485,41.0570077,0 19.8532621,41.0573296,0 19.8491454,41.0579065,0 19.8472963,41.0573305,0 19.844427,41.0559693,0 19.8420673,41.0552872,0 19.8364151,41.0546778,0 19.8345757,41.0525292,0 19.8312382,41.051824,0 19.8294318,41.0515459,0 19.8244345,41.0503414,0 19.8227585,41.0499801,0 19.8190997,41.0473442,0 19.8102272,41.0435671,0 19.8088527,41.0432177,0 19.7830331,41.0438963,0 19.7793712,41.0432787,0 19.7775873,41.0427544,0 19.7715087,41.0416769,0 19.7685805,41.0415315,0 19.7667771,41.040499,0 19.7632011,41.0422025,0 19.7614217,41.0426365,0 19.7606822,41.0441812,0 19.7547592,41.0462181,0 19.7517078,41.0457844,0 19.7464141,41.0470462,0 19.7416788,41.0484046,0 19.7378429,41.0490356,0 19.7309679,41.0513463,0 19.7270336,41.0518,0 19.7192983,41.0553631,0 19.7180678,41.0561289,0 19.7150195,41.0606144,0 19.7050286,41.0635756,0 19.6953753,41.0643881,0 19.6877963,41.0664515,0 19.6848928,41.06914,0 19.6723598,41.0742009,0 19.6710764,41.0736996,0 19.663336,41.0763909,0 19.6560275,41.0789904,0 19.6533345,41.0792264,0 19.6511935,41.0785041,0 19.6468219,41.0778627,0 19.6438466,41.0757902,0 19.6402125,41.0745148,0 19.636774,41.0729183,0 19.6346252,41.0724702,0 19.6265253,41.0771406,0 19.6194918,41.0828087,0 19.6177956,41.0879529,0 19.6178186,41.0878045,0 19.6124545,41.0932889,0 19.6002837,41.126889,0 19.5763059,41.1674797,0 19.560608,41.1883322,0 19.5539041,41.1973912,0 19.5469191,41.2011669,0 19.5404443,41.2058444,0 19.5360105,41.2105048,0 19.5265375,41.2335535,0 19.5245732,41.2636514,0 19.5234222,41.2654888,0 19.5175084,41.2732655,0 19.5145985,41.2790461,0 19.5143221,41.2846302,0 19.5126402,41.2898822,0 19.5098453,41.2913714,0 19.5072407,41.2932071,0 19.5056995,41.2963258,0 19.4895244,41.307715,0 19.4782076,41.3158205,0 19.4550693,41.3188274,0 19.448647,41.3111014,0 </coordinates></LineString>
    </Placemark>
  </Folder>
</kml>
